{
  "norad_id": 50835,
  "name": "STARLINK-3310",
  "history": [
    {
      "epoch": "2026-03-28T17:11:37.571712Z",
      "apogee_km": 540.6648616588864,
      "perigee_km": 538.8565232020856,
      "latitude_deg": 8.878424379226952e-06,
      "longitude_deg": 9.783898907184316,
      "height_km": 540.6538770693744,
      "semi_major_axis_km": 6917.897692430486,
      "eccentricity": 0.0001307,
      "inclination_deg": 53.2167,
      "raan_deg": 93.8233,
      "arg_perigee_deg": 89.8405,
      "mean_anomaly_deg": 270.2737,
      "mean_motion_rev_day": 15.08834339
    },
    {
      "epoch": "2026-03-29T04:19:19.388064Z",
      "apogee_km": 540.6307369732549,
      "perigee_km": 538.8680595189817,
      "latitude_deg": -8.401667668703543e-06,
      "longitude_deg": -159.67897107562166,
      "height_km": 540.6387798550148,
      "semi_major_axis_km": 6917.886398246118,
      "eccentricity": 0.0001274,
      "inclination_deg": 53.2166,
      "raan_deg": 91.7417,
      "arg_perigee_deg": 89.5866,
      "mean_anomaly_deg": 270.5272,
      "mean_motion_rev_day": 15.08838034
    },
    {
      "epoch": "2026-03-30T05:45:29.322144Z",
      "apogee_km": 540.6442356898478,
      "perigee_km": 538.8392227718159,
      "latitude_deg": -4.8876341931522915e-05,
      "longitude_deg": 172.97658431166133,
      "height_km": 540.6510663547473,
      "semi_major_axis_km": 6917.878729230832,
      "eccentricity": 0.00013046,
      "inclination_deg": 53.2168,
      "raan_deg": 86.9833,
      "arg_perigee_deg": 90.8641,
      "mean_anomaly_deg": 269.25,
      "mean_motion_rev_day": 15.08840543
    },
    {
      "epoch": "2026-03-30T08:56:15.554400Z",
      "apogee_km": 540.6453466298999,
      "perigee_km": 538.8318947146981,
      "latitude_deg": 5.777812193421526e-05,
      "longitude_deg": 124.5583515732587,
      "height_km": 540.6156926268799,
      "semi_major_axis_km": 6917.875620672299,
      "eccentricity": 0.00013107,
      "inclination_deg": 53.2168,
      "raan_deg": 86.3882,
      "arg_perigee_deg": 88.8226,
      "mean_anomaly_deg": 271.2917,
      "mean_motion_rev_day": 15.0884156
    },
    {
      "epoch": "2026-03-30T23:14:43.885536Z",
      "apogee_km": 540.6771159789114,
      "perigee_km": 538.7976678641135,
      "latitude_deg": -5.3003901917838734e-05,
      "longitude_deg": -93.32367984009382,
      "height_km": 540.5967637714886,
      "semi_major_axis_km": 6917.874391921512,
      "eccentricity": 0.00013584,
      "inclination_deg": 53.2166,
      "raan_deg": 83.7119,
      "arg_perigee_deg": 87.7885,
      "mean_anomaly_deg": 272.3262,
      "mean_motion_rev_day": 15.08841962
    },
    {
      "epoch": "2026-03-31T16:43:58.615680Z",
      "apogee_km": 540.7087677512791,
      "perigee_km": 538.7814457963314,
      "latitude_deg": 3.0020063542654608e-05,
      "longitude_deg": 0.3757242799728954,
      "height_km": 540.6046989970124,
      "semi_major_axis_km": 6917.8821067738045,
      "eccentricity": 0.0001393,
      "inclination_deg": 53.2167,
      "raan_deg": 80.4408,
      "arg_perigee_deg": 87.8596,
      "mean_anomaly_deg": 272.2556,
      "mean_motion_rev_day": 15.08839438
    },
    {
      "epoch": "2026-04-01T16:34:45.687648Z",
      "apogee_km": 540.7064539385728,
      "perigee_km": 538.7832827791699,
      "latitude_deg": -2.99405929518933e-05,
      "longitude_deg": -2.7601894395669215,
      "height_km": 540.621334228396,
      "semi_major_axis_km": 6917.8818683588715,
      "eccentricity": 0.000139,
      "inclination_deg": 53.217,
      "raan_deg": 75.9804,
      "arg_perigee_deg": 88.8582,
      "mean_anomaly_deg": 271.2569,
      "mean_motion_rev_day": 15.08839516
    },
    {
      "epoch": "2026-04-02T05:17:48.717600Z",
      "apogee_km": 540.569667796286,
      "perigee_km": 538.7677177694304,
      "latitude_deg": -2.6227430957151067e-05,
      "longitude_deg": 163.57589954874393,
      "height_km": 540.590730280988,
      "semi_major_axis_km": 6917.8056927828575,
      "eccentricity": 0.00013024,
      "inclination_deg": 53.2171,
      "raan_deg": 73.6014,
      "arg_perigee_deg": 91.6708,
      "mean_anomaly_deg": 268.4433,
      "mean_motion_rev_day": 15.08864438
    },
    {
      "epoch": "2026-04-03T05:08:37.600512Z",
      "apogee_km": 540.6854171623518,
      "perigee_km": 538.8188323187132,
      "latitude_deg": -3.5637117156915684e-05,
      "longitude_deg": 160.43195640828588,
      "height_km": 540.5925681070576,
      "semi_major_axis_km": 6917.889124740532,
      "eccentricity": 0.00013491,
      "inclination_deg": 53.2176,
      "raan_deg": 69.1405,
      "arg_perigee_deg": 86.6026,
      "mean_anomaly_deg": 273.512,
      "mean_motion_rev_day": 15.08837142
    },
    {
      "epoch": "2026-04-04T04:59:25.265184Z",
      "apogee_km": 540.6715579630882,
      "perigee_km": 538.8413600695703,
      "latitude_deg": -4.449619647855356e-05,
      "longitude_deg": 157.29470278999793,
      "height_km": 540.540484935048,
      "semi_major_axis_km": 6917.893459016329,
      "eccentricity": 0.00013228,
      "inclination_deg": 53.2178,
      "raan_deg": 64.6812,
      "arg_perigee_deg": 82.9828,
      "mean_anomaly_deg": 277.1314,
      "mean_motion_rev_day": 15.08835724
    },
    {
      "epoch": "2026-04-05T14:22:31.154016Z",
      "apogee_km": 540.8090193977396,
      "perigee_km": 538.718429798766,
      "latitude_deg": 5.430700009602265e-05,
      "longitude_deg": 8.903565663757927,
      "height_km": 540.5516730842241,
      "semi_major_axis_km": 6917.900724598252,
      "eccentricity": 0.0001511,
      "inclination_deg": 53.2171,
      "raan_deg": 58.4356,
      "arg_perigee_deg": 84.0962,
      "mean_anomaly_deg": 276.0203,
      "mean_motion_rev_day": 15.08833347
    },
    {
      "epoch": "2026-04-05T20:44:03.911424Z",
      "apogee_km": 540.8145952374571,
      "perigee_km": 538.7101702452264,
      "latitude_deg": 5.875692883901913e-05,
      "longitude_deg": -87.93317963033037,
      "height_km": 540.6154002365231,
      "semi_major_axis_km": 6917.8993827413415,
      "eccentricity": 0.0001521,
      "inclination_deg": 53.2175,
      "raan_deg": 57.2465,
      "arg_perigee_deg": 87.687,
      "mean_anomaly_deg": 272.4297,
      "mean_motion_rev_day": 15.08833786
    },
    {
      "epoch": "2026-04-06T04:40:59.650176Z",
      "apogee_km": 540.8139913670493,
      "perigee_km": 538.7063848097268,
      "latitude_deg": -3.994923626394148e-05,
      "longitude_deg": 151.02125516550666,
      "height_km": 540.6077605003717,
      "semi_major_axis_km": 6917.897188088388,
      "eccentricity": 0.00015233,
      "inclination_deg": 53.2176,
      "raan_deg": 55.7597,
      "arg_perigee_deg": 87.3929,
      "mean_anomaly_deg": 272.7237,
      "mean_motion_rev_day": 15.08834504
    },
    {
      "epoch": "2026-04-07T14:04:05.373984Z",
      "apogee_km": 540.8490418867559,
      "perigee_km": 538.6397472845802,
      "latitude_deg": 6.208666971325561e-06,
      "longitude_deg": 2.63176648843964,
      "height_km": 540.59012933333,
      "semi_major_axis_km": 6917.881394585667,
      "eccentricity": 0.00015968,
      "inclination_deg": 53.2182,
      "raan_deg": 49.5151,
      "arg_perigee_deg": 87.4199,
      "mean_anomaly_deg": 272.6976,
      "mean_motion_rev_day": 15.08839671
    },
    {
      "epoch": "2026-04-07T20:25:37.877376Z",
      "apogee_km": 540.8391816138646,
      "perigee_km": 538.6517471786219,
      "latitude_deg": -1.2247233466239103e-05,
      "longitude_deg": -94.20443484029403,
      "height_km": 540.5975738755363,
      "semi_major_axis_km": 6917.882464396243,
      "eccentricity": 0.0001581,
      "inclination_deg": 53.2178,
      "raan_deg": 48.3255,
      "arg_perigee_deg": 87.7293,
      "mean_anomaly_deg": 272.388,
      "mean_motion_rev_day": 15.08839321
    },
    {
      "epoch": "2026-04-08T05:57:56.564640Z",
      "apogee_km": 540.8350295032424,
      "perigee_km": 538.6456596812268,
      "latitude_deg": -1.996372355652124e-05,
      "longitude_deg": 120.54206134749313,
      "height_km": 540.5835552868356,
      "semi_major_axis_km": 6917.877344592234,
      "eccentricity": 0.00015824,
      "inclination_deg": 53.2179,
      "raan_deg": 46.5416,
      "arg_perigee_deg": 87.2645,
      "mean_anomaly_deg": 272.8528,
      "mean_motion_rev_day": 15.08840996
    },
    {
      "epoch": "2026-04-09T05:48:43.975296Z",
      "apogee_km": 540.8572276890218,
      "perigee_km": 538.6429503895624,
      "latitude_deg": -3.162567750462082e-05,
      "longitude_deg": 117.4049641748265,
      "height_km": 540.6042809820542,
      "semi_major_axis_km": 6917.887089039292,
      "eccentricity": 0.00016004,
      "inclination_deg": 53.218,
      "raan_deg": 42.0814,
      "arg_perigee_deg": 87.8649,
      "mean_anomaly_deg": 272.2526,
      "mean_motion_rev_day": 15.08837808
    },
    {
      "epoch": "2026-04-10T05:39:30.603168Z",
      "apogee_km": 540.8742581317356,
      "perigee_km": 538.5968944796159,
      "latitude_deg": 1.5185069728297993e-05,
      "longitude_deg": 114.26998126463158,
      "height_km": 540.74713325452,
      "semi_major_axis_km": 6917.8725763056755,
      "eccentricity": 0.0001646,
      "inclination_deg": 53.2185,
      "raan_deg": 37.62,
      "arg_perigee_deg": 95.8534,
      "mean_anomaly_deg": 264.2646,
      "mean_motion_rev_day": 15.08842556
    },
    {
      "epoch": "2026-04-11T19:48:46.707840Z",
      "apogee_km": 540.8248856005002,
      "perigee_km": 538.7010903041992,
      "latitude_deg": 8.215888320978283e-07,
      "longitude_deg": -106.75278387080571,
      "height_km": 540.4985822834599,
      "semi_major_axis_km": 6917.89998795235,
      "eccentricity": 0.0001535,
      "inclination_deg": 53.2184,
      "raan_deg": 30.4813,
      "arg_perigee_deg": 81.3341,
      "mean_anomaly_deg": 278.7825,
      "mean_motion_rev_day": 15.08833588
    }
  ]
}